ORBCOMM FM05            
1 25117U 97084F   24365.71623294  .00006745  00000+0  19607-2 0  9994
2 25117  45.0147  96.3289 0001120 185.2243 174.8597 14.44824942416234
ORBCOMM FM06            
1 25118U 97084G   24365.75198736  .00006678  00000+0  19346-2 0  9992
2 25118  45.0139  96.1030 0001662 220.6662 275.9065 14.45004301417153
ORBCOMM FM07            
1 25119U 97084H   24366.42576349  .00005805  00000+0  16913-2 0  9996
2 25119  45.0136  93.5942 0000950 146.7228 213.3683 14.44893424417264
ORBCOMM FM03            
1 25158U 98007B   24365.81816646  .00005720  00000+0  20766-2 0  9991
2 25158 107.9667 149.8810 0046685 186.4133 173.6414 14.33713025399900
ORBCOMM FM04            
1 25159U 98007C   24365.90234848  .00004846  00000+0  17613-2 0  9995
2 25159 107.9654 153.1581 0042211 184.1588 175.9206 14.33981055400097
ORBCOMM FM17            
1 25413U 98046A   24366.10867022  .00003371  00000+0  12354-2 0  9999
2 25413  44.9952 330.5007 0001645  33.8475 326.2476 14.34439354379205
ORBCOMM FM18            
1 25414U 98046B   24365.89707732  .00004086  00000+0  13940-2 0  9992
2 25414  44.9919 253.2470 0004056 142.5141 217.5990 14.37647015380024
ORBCOMM FM19            
1 25415U 98046C   24365.91069634  .00004140  00000+0  14172-2 0  9997
2 25415  44.9932 254.9196 0002956 129.5119 332.6742 14.37462536379980
