<?xml version="1.0" encoding="UTF-8"?>
<ndm xmlns:xsi="http://www.w3.org/2001/XMLSchema-instance" xsi:noNamespaceSchemaLocation="https://sanaregistry.org/r/ndmxml_unqualified/ndmxml-2.0.0-master-2.0.xsd">
<omm id="CCSDS_OMM_VERS" version="2.0">
<header><CREATION_DATE/><ORIGINATOR/></header><body><segment><metadata><OBJECT_NAME>ORBCOMM FM05</OBJECT_NAME><OBJECT_ID>1997-084F</OBJECT_ID><CENTER_NAME>EARTH</CENTER_NAME><REF_FRAME>TEME</REF_FRAME><TIME_SYSTEM>UTC</TIME_SYSTEM><MEAN_ELEMENT_THEORY>SGP4</MEAN_ELEMENT_THEORY></metadata><data><meanElements><EPOCH>2024-12-30T17:11:22.526016</EPOCH><MEAN_MOTION>14.44824942</MEAN_MOTION><ECCENTRICITY>.000112</ECCENTRICITY><INCLINATION>45.0147</INCLINATION><RA_OF_ASC_NODE>96.3289</RA_OF_ASC_NODE><ARG_OF_PERICENTER>185.2243</ARG_OF_PERICENTER><MEAN_ANOMALY>174.8597</MEAN_ANOMALY></meanElements><tleParameters><EPHEMERIS_TYPE>0</EPHEMERIS_TYPE><CLASSIFICATION_TYPE>U</CLASSIFICATION_TYPE><NORAD_CAT_ID>25117</NORAD_CAT_ID><ELEMENT_SET_NO>999</ELEMENT_SET_NO><REV_AT_EPOCH>41623</REV_AT_EPOCH><BSTAR>.19607E-2</BSTAR><MEAN_MOTION_DOT>.6745E-4</MEAN_MOTION_DOT><MEAN_MOTION_DDOT>0</MEAN_MOTION_DDOT></tleParameters></data></segment></body></omm>
<omm id="CCSDS_OMM_VERS" version="2.0">
<header><CREATION_DATE/><ORIGINATOR/></header><body><segment><metadata><OBJECT_NAME>ORBCOMM FM06</OBJECT_NAME><OBJECT_ID>1997-084G</OBJECT_ID><CENTER_NAME>EARTH</CENTER_NAME><REF_FRAME>TEME</REF_FRAME><TIME_SYSTEM>UTC</TIME_SYSTEM><MEAN_ELEMENT_THEORY>SGP4</MEAN_ELEMENT_THEORY></metadata><data><meanElements><EPOCH>2024-12-30T18:02:51.707904</EPOCH><MEAN_MOTION>14.45004301</MEAN_MOTION><ECCENTRICITY>.0001662</ECCENTRICITY><INCLINATION>45.0139</INCLINATION><RA_OF_ASC_NODE>96.1030</RA_OF_ASC_NODE><ARG_OF_PERICENTER>220.6662</ARG_OF_PERICENTER><MEAN_ANOMALY>275.9065</MEAN_ANOMALY></meanElements><tleParameters><EPHEMERIS_TYPE>0</EPHEMERIS_TYPE><CLASSIFICATION_TYPE>U</CLASSIFICATION_TYPE><NORAD_CAT_ID>25118</NORAD_CAT_ID><ELEMENT_SET_NO>999</ELEMENT_SET_NO><REV_AT_EPOCH>41715</REV_AT_EPOCH><BSTAR>.19346E-2</BSTAR><MEAN_MOTION_DOT>.6678E-4</MEAN_MOTION_DOT><MEAN_MOTION_DDOT>0</MEAN_MOTION_DDOT></tleParameters></data></segment></body></omm>
<omm id="CCSDS_OMM_VERS" version="2.0">
<header><CREATION_DATE/><ORIGINATOR/></header><body><segment><metadata><OBJECT_NAME>ORBCOMM FM07</OBJECT_NAME><OBJECT_ID>1997-084H</OBJECT_ID><CENTER_NAME>EARTH</CENTER_NAME><REF_FRAME>TEME</REF_FRAME><TIME_SYSTEM>UTC</TIME_SYSTEM><MEAN_ELEMENT_THEORY>SGP4</MEAN_ELEMENT_THEORY></metadata><data><meanElements><EPOCH>2024-12-31T10:13:05.965536</EPOCH><MEAN_MOTION>14.44893424</MEAN_MOTION><ECCENTRICITY>.000095</ECCENTRICITY><INCLINATION>45.0136</INCLINATION><RA_OF_ASC_NODE>93.5942</RA_OF_ASC_NODE><ARG_OF_PERICENTER>146.7228</ARG_OF_PERICENTER><MEAN_ANOMALY>213.3683</MEAN_ANOMALY></meanElements><tleParameters><EPHEMERIS_TYPE>0</EPHEMERIS_TYPE><CLASSIFICATION_TYPE>U</CLASSIFICATION_TYPE><NORAD_CAT_ID>25119</NORAD_CAT_ID><ELEMENT_SET_NO>999</ELEMENT_SET_NO><REV_AT_EPOCH>41726</REV_AT_EPOCH><BSTAR>.16913E-2</BSTAR><MEAN_MOTION_DOT>.5805E-4</MEAN_MOTION_DOT><MEAN_MOTION_DDOT>0</MEAN_MOTION_DDOT></tleParameters></data></segment></body></omm>
<omm id="CCSDS_OMM_VERS" version="2.0">
<header><CREATION_DATE/><ORIGINATOR/></header><body><segment><metadata><OBJECT_NAME>ORBCOMM FM03</OBJECT_NAME><OBJECT_ID>1998-007B</OBJECT_ID><CENTER_NAME>EARTH</CENTER_NAME><REF_FRAME>TEME</REF_FRAME><TIME_SYSTEM>UTC</TIME_SYSTEM><MEAN_ELEMENT_THEORY>SGP4</MEAN_ELEMENT_THEORY></metadata><data><meanElements><EPOCH>2024-12-30T19:38:09.582144</EPOCH><MEAN_MOTION>14.33713025</MEAN_MOTION><ECCENTRICITY>.0046685</ECCENTRICITY><INCLINATION>107.9667</INCLINATION><RA_OF_ASC_NODE>149.8810</RA_OF_ASC_NODE><ARG_OF_PERICENTER>186.4133</ARG_OF_PERICENTER><MEAN_ANOMALY>173.6414</MEAN_ANOMALY></meanElements><tleParameters><EPHEMERIS_TYPE>0</EPHEMERIS_TYPE><CLASSIFICATION_TYPE>U</CLASSIFICATION_TYPE><NORAD_CAT_ID>25158</NORAD_CAT_ID><ELEMENT_SET_NO>999</ELEMENT_SET_NO><REV_AT_EPOCH>39990</REV_AT_EPOCH><BSTAR>.20766E-2</BSTAR><MEAN_MOTION_DOT>.572E-4</MEAN_MOTION_DOT><MEAN_MOTION_DDOT>0</MEAN_MOTION_DDOT></tleParameters></data></segment></body></omm>
<omm id="CCSDS_OMM_VERS" version="2.0">
<header><CREATION_DATE/><ORIGINATOR/></header><body><segment><metadata><OBJECT_NAME>ORBCOMM FM04</OBJECT_NAME><OBJECT_ID>1998-007C</OBJECT_ID><CENTER_NAME>EARTH</CENTER_NAME><REF_FRAME>TEME</REF_FRAME><TIME_SYSTEM>UTC</TIME_SYSTEM><MEAN_ELEMENT_THEORY>SGP4</MEAN_ELEMENT_THEORY></metadata><data><meanElements><EPOCH>2024-12-30T21:39:22.908672</EPOCH><MEAN_MOTION>14.33981055</MEAN_MOTION><ECCENTRICITY>.0042211</ECCENTRICITY><INCLINATION>107.9654</INCLINATION><RA_OF_ASC_NODE>153.1581</RA_OF_ASC_NODE><ARG_OF_PERICENTER>184.1588</ARG_OF_PERICENTER><MEAN_ANOMALY>175.9206</MEAN_ANOMALY></meanElements><tleParameters><EPHEMERIS_TYPE>0</EPHEMERIS_TYPE><CLASSIFICATION_TYPE>U</CLASSIFICATION_TYPE><NORAD_CAT_ID>25159</NORAD_CAT_ID><ELEMENT_SET_NO>999</ELEMENT_SET_NO><REV_AT_EPOCH>40009</REV_AT_EPOCH><BSTAR>.17613E-2</BSTAR><MEAN_MOTION_DOT>.4846E-4</MEAN_MOTION_DOT><MEAN_MOTION_DDOT>0</MEAN_MOTION_DDOT></tleParameters></data></segment></body></omm>
<omm id="CCSDS_OMM_VERS" version="2.0">
<header><CREATION_DATE/><ORIGINATOR/></header><body><segment><metadata><OBJECT_NAME>ORBCOMM FM17</OBJECT_NAME><OBJECT_ID>1998-046A</OBJECT_ID><CENTER_NAME>EARTH</CENTER_NAME><REF_FRAME>TEME</REF_FRAME><TIME_SYSTEM>UTC</TIME_SYSTEM><MEAN_ELEMENT_THEORY>SGP4</MEAN_ELEMENT_THEORY></metadata><data><meanElements><EPOCH>2024-12-31T02:36:29.107008</EPOCH><MEAN_MOTION>14.34439354</MEAN_MOTION><ECCENTRICITY>.0001645</ECCENTRICITY><INCLINATION>44.9952</INCLINATION><RA_OF_ASC_NODE>330.5007</RA_OF_ASC_NODE><ARG_OF_PERICENTER>33.8475</ARG_OF_PERICENTER><MEAN_ANOMALY>326.2476</MEAN_ANOMALY></meanElements><tleParameters><EPHEMERIS_TYPE>0</EPHEMERIS_TYPE><CLASSIFICATION_TYPE>U</CLASSIFICATION_TYPE><NORAD_CAT_ID>25413</NORAD_CAT_ID><ELEMENT_SET_NO>999</ELEMENT_SET_NO><REV_AT_EPOCH>37920</REV_AT_EPOCH><BSTAR>.12354E-2</BSTAR><MEAN_MOTION_DOT>.3371E-4</MEAN_MOTION_DOT><MEAN_MOTION_DDOT>0</MEAN_MOTION_DDOT></tleParameters></data></segment></body></omm>
<omm id="CCSDS_OMM_VERS" version="2.0">
<header><CREATION_DATE/><ORIGINATOR/></header><body><segment><metadata><OBJECT_NAME>ORBCOMM FM18</OBJECT_NAME><OBJECT_ID>1998-046B</OBJECT_ID><CENTER_NAME>EARTH</CENTER_NAME><REF_FRAME>TEME</REF_FRAME><TIME_SYSTEM>UTC</TIME_SYSTEM><MEAN_ELEMENT_THEORY>SGP4</MEAN_ELEMENT_THEORY></metadata><data><meanElements><EPOCH>2024-12-30T21:31:47.480448</EPOCH><MEAN_MOTION>14.37647015</MEAN_MOTION><ECCENTRICITY>.0004056</ECCENTRICITY><INCLINATION>44.9919</INCLINATION><RA_OF_ASC_NODE>253.2470</RA_OF_ASC_NODE><ARG_OF_PERICENTER>142.5141</ARG_OF_PERICENTER><MEAN_ANOMALY>217.5990</MEAN_ANOMALY></meanElements><tleParameters><EPHEMERIS_TYPE>0</EPHEMERIS_TYPE><CLASSIFICATION_TYPE>U</CLASSIFICATION_TYPE><NORAD_CAT_ID>25414</NORAD_CAT_ID><ELEMENT_SET_NO>999</ELEMENT_SET_NO><REV_AT_EPOCH>38002</REV_AT_EPOCH><BSTAR>.1394E-2</BSTAR><MEAN_MOTION_DOT>.4086E-4</MEAN_MOTION_DOT><MEAN_MOTION_DDOT>0</MEAN_MOTION_DDOT></tleParameters></data></segment></body></omm>
<omm id="CCSDS_OMM_VERS" version="2.0">
<header><CREATION_DATE/><ORIGINATOR/></header><body><segment><metadata><OBJECT_NAME>ORBCOMM FM19</OBJECT_NAME><OBJECT_ID>1998-046C</OBJECT_ID><CENTER_NAME>EARTH</CENTER_NAME><REF_FRAME>TEME</REF_FRAME><TIME_SYSTEM>UTC</TIME_SYSTEM><MEAN_ELEMENT_THEORY>SGP4</MEAN_ELEMENT_THEORY></metadata><data><meanElements><EPOCH>2024-12-30T21:51:24.163776</EPOCH><MEAN_MOTION>14.37462536</MEAN_MOTION><ECCENTRICITY>.0002956</ECCENTRICITY><INCLINATION>44.9932</INCLINATION><RA_OF_ASC_NODE>254.9196</RA_OF_ASC_NODE><ARG_OF_PERICENTER>129.5119</ARG_OF_PERICENTER><MEAN_ANOMALY>332.6742</MEAN_ANOMALY></meanElements><tleParameters><EPHEMERIS_TYPE>0</EPHEMERIS_TYPE><CLASSIFICATION_TYPE>U</CLASSIFICATION_TYPE><NORAD_CAT_ID>25415</NORAD_CAT_ID><ELEMENT_SET_NO>999</ELEMENT_SET_NO><REV_AT_EPOCH>37998</REV_AT_EPOCH><BSTAR>.14172E-2</BSTAR><MEAN_MOTION_DOT>.414E-4</MEAN_MOTION_DOT><MEAN_MOTION_DDOT>0</MEAN_MOTION_DDOT></tleParameters></data></segment></body></omm>

</ndm>
